NORAD_CAT_ID,OBJECT_NAME,OBJECT_TYPE,EPOCH,MEAN_MOTION,ECCENTRICITY,INCLINATION,RA_OF_ASC_NODE,ARG_OF_PERICENTER,MEAN_ANOMALY,BSTAR,MEAN_MOTION_DOT,MEAN_MOTION_DDOT,TLE_LINE0,TLE_LINE1,TLE_LINE2,SEMIMAJOR_AXIS,PERIOD,APOGEE,PERIGEE,DECAYED
51139.0,STARLINK-3172,PAYLOAD,2023-11-04 19:42:31,15.08838185,0.0001332,53.2153,181.2644,83.4904,276.624,3.3017e-05,2.38e-06,0.0,0 STARLINK-3172,1 51139U 22005AM  23308.82120285  .00000238  00000-0  33017-4 0  9993,2 51139  53.2153 181.2644 0001332  83.4904 276.6240 15.08838185100648,6917.886,95.438,540.672,538.829,0.0
51139.0,STARLINK-3172,PAYLOAD,2023-11-04 22:53:18,15.08841683,0.0001404,53.2159,180.673,96.6679,263.4473,9.5224e-05,1.228e-05,0.0,0 STARLINK-3172,1 51139U 22005AM  23308.95368130  .00001228  00000-0  95224-4 0  9998,2 51139  53.2159 180.6730 0001404  96.6679 263.4473 15.08841683 99554,6917.875,95.437,540.712,538.769,0.0
51139.0,STARLINK-3172,PAYLOAD,2023-11-05 08:25:36,15.08847785,0.0001245,53.2159,178.8865,84.3468,275.7666,0.00015046,2.108e-05,0.0,0 STARLINK-3172,1 51139U 22005AM  23309.35111782  .00002108  00000-0  15046-3 0  9993,2 51139  53.2159 178.8865 0001245  84.3468 275.7666 15.08847785100726,6917.857,95.437,540.583,538.86,0.0
51139.0,STARLINK-3172,PAYLOAD,2023-11-05 19:33:19,15.08836464,0.0001341,53.2167,176.8053,87.619,272.4956,-8.7223e-05,-1.676e-05,0.0,0 STARLINK-3172,1 51139U 22005AM  23309.81480461 -.00001676  00000-0 -87223-4 0  9995,2 51139  53.2167 176.8053 0001341  87.6190 272.4956 15.08836464100792,6917.891,95.438,540.684,538.829,0.0
51139.0,STARLINK-3172,PAYLOAD,2023-11-05 22:44:04,15.08859336,0.0001147,53.2152,176.212,96.9243,263.188,0.00031605,4.748e-05,0.0,0 STARLINK-3172,1 51139U 22005AM  23309.94727342  .00004748  00000-0  31605-3 0  9994,2 51139  53.2152 176.2120 0001147  96.9243 263.1880 15.08859336 99705,6917.821,95.436,540.48,538.893,0.0
51139.0,STARLINK-3172,PAYLOAD,2023-11-06 00:19:27,15.08861176,0.0001142,53.2152,175.9145,105.1217,254.9901,0.00032955,4.964e-05,0.0,0 STARLINK-3172,1 51139U 22005AM  23310.01351132  .00004964  00000-0  32955-3 0  9993,2 51139  53.2152 175.9145 0001142 105.1217 254.9901 15.08861176100820,6917.816,95.436,540.471,538.891,0.0
51139.0,STARLINK-3172,PAYLOAD,2023-11-06 08:16:23,15.08856862,0.0001501,53.2165,174.4236,78.1894,281.9267,0.00012829,1.755e-05,0.0,0 STARLINK-3172,1 51139U 22005AM  23310.34471112  .00001755  00000-0  12829-3 0  9993,2 51139  53.2165 174.4236 0001501  78.1894 281.9267 15.08856862100874,6917.829,95.436,540.732,538.655,0.0
51139.0,STARLINK-3172,PAYLOAD,2023-11-06 19:24:07,15.08814042,0.0001836,53.2164,172.3436,58.653,301.4641,-0.00029651,-5.001e-05,0.0,0 STARLINK-3172,1 51139U 22005AM  23310.80841524 -.00005001  00000-0 -29651-3 0  9993,2 51139  53.2164 172.3436 0001836  58.6530 301.4641 15.08814042100949,6917.96,95.439,541.095,538.555,0.0
51139.0,STARLINK-3172,PAYLOAD,2023-11-06 22:34:54,15.08800112,0.0001285,53.2157,171.7492,81.2752,278.8385,-0.00057806,-9.466e-05,0.0,0 STARLINK-3172,1 51139U 22005AM  23310.94090282 -.00009466  00000-0 -57806-3 0  9997,2 51139  53.2157 171.7492 0001285  81.2752 278.8385 15.08800112 99854,6918.002,95.44,540.756,538.978,0.0
51139.0,STARLINK-3172,PAYLOAD,2023-11-07 08:07:13,15.08807685,0.0001218,53.2162,169.9666,91.7748,268.3384,-0.00033216,-5.565e-05,0.0,0 STARLINK-3172,1 51139U 22005AM  23311.33834713 -.00005565  00000-0 -33216-3 0  9991,2 51139  53.2162 169.9666 0001218  91.7748 268.3384 15.08807685101027,6917.979,95.44,540.687,539.002,0.0
51139.0,STARLINK-3172,PAYLOAD,2023-11-07 20:50:18,15.08822032,0.0001315,53.2152,167.5853,89.2916,270.8227,-0.00019368,-3.367e-05,0.0,0 STARLINK-3172,1 51139U 22005AM  23311.86826913 -.00003367  00000-0 -19368-3 0  9992,2 51139  53.2152 167.5853 0001315  89.2916 270.8227 15.08822032101101,6917.935,95.439,540.71,538.891,0.0
51139.0,STARLINK-3172,PAYLOAD,2023-11-08 20:41:05,15.0884742,0.0001418,53.2161,163.1292,79.3118,280.8034,0.00032447,4.881e-05,0.0,0 STARLINK-3172,1 51139U 22005AM  23312.86186460  .00004881  00000-0  32447-3 0  9992,2 51139  53.2161 163.1292 0001418  79.3118 280.8034 15.08847420101259,6917.858,95.437,540.704,538.742,0.0
51139.0,STARLINK-3172,PAYLOAD,2023-11-08 23:51:52,15.08824424,0.0001056,53.2151,162.5355,70.3122,289.7984,0.00062251,9.629e-05,0.0,0 STARLINK-3172,1 51139U 22005AM  23312.99435648  .00009629  00000-0  62251-3 0  9992,2 51139  53.2151 162.5355 0001056  70.3122 289.7984 15.08824424101278,6917.928,95.439,540.524,539.062,0.0
51139.0,STARLINK-3172,PAYLOAD,2023-11-09 14:10:20,15.08836002,0.0001093,53.2152,159.8579,80.6208,279.4907,0.00029349,4.386e-05,0.0,0 STARLINK-3172,1 51139U 22005AM  23313.59051541  .00004386  00000-0  29349-3 0  9991,2 51139  53.2152 159.8579 0001093  80.6208 279.4907 15.08836002100259,6917.893,95.438,540.514,539.001,0.0
51139.0,STARLINK-3172,PAYLOAD,2023-11-09 20:31:52,15.08847541,0.0001304,53.2153,158.6675,88.6163,271.4979,0.00026004,3.854e-05,0.0,0 STARLINK-3172,1 51139U 22005AM  23313.85547099  .00003854  00000-0  26004-3 0  9992,2 51139  53.2153 158.6675 0001304  88.6163 271.4979 15.08847541100292,6917.857,95.437,540.624,538.82,0.0
51139.0,STARLINK-3172,PAYLOAD,2023-11-09 23:42:40,15.08807003,0.0001028,53.2154,158.072,89.4676,270.6434,-0.0003549,-5.926e-05,0.0,0 STARLINK-3172,1 51139U 22005AM  23313.98796758 -.00005926  00000-0 -35490-3 0  9997,2 51139  53.2154 158.0720 0001028  89.4676 270.6434 15.08807003101421,6917.981,95.44,540.557,539.135,0.0
51139.0,STARLINK-3172,PAYLOAD,2023-11-10 20:22:38,15.0886747,0.0001265,53.2149,154.2047,92.2578,267.8559,0.00016889,2.403e-05,0.0,0 STARLINK-3172,1 51139U 22005AM  23314.84905176  .00002403  00000-0  16889-3 0  9995,2 51139  53.2149 154.2047 0001265  92.2578 267.8559 15.08867470101555,6917.796,95.436,540.537,538.786,0.0
51139.0,STARLINK-3172,PAYLOAD,2023-11-10 21:58:01,15.08867179,0.000129,53.2151,153.9072,93.6174,266.4965,0.00019827,2.871e-05,0.0,0 STARLINK-3172,1 51139U 22005AM  23314.91529070  .00002871  00000-0  19827-3 0  9992,2 51139  53.2151 153.9072 0001290  93.6174 266.4965 15.08867179100457,6917.797,95.436,540.555,538.77,0.0
51139.0,STARLINK-3172,PAYLOAD,2023-11-11 12:16:29,15.088532,0.0001783,53.2139,151.2286,113.9791,246.1388,5.4586e-05,5.81e-06,0.0,0 STARLINK-3172,1 51139U 22005AM  23315.51145242  .00000581  00000-0  54586-4 0  9992,2 51139  53.2139 151.2286 0001783 113.9791 246.1388 15.08853200101656,6917.84,95.437,540.938,538.472,0.0
51139.0,STARLINK-3172,PAYLOAD,2023-11-11 20:13:25,15.08852851,0.000135,53.2151,149.7425,99.7038,260.4107,2.7256e-05,1.46e-06,0.0,0 STARLINK-3172,1 51139U 22005AM  23315.84265060  .00000146  00000-0  27256-4 0  9990,2 51139  53.2151 149.7425 0001350  99.7038 260.4107 15.08852851100593,6917.841,95.437,540.64,538.772,0.0
51139.0,STARLINK-3172,PAYLOAD,2023-11-12 12:07:16,15.08844494,0.000133,53.2147,146.77,98.2409,261.8734,-6.3498e-05,-1.298e-05,0.0,0 STARLINK-3172,1 51139U 22005AM  23316.50505058 -.00001298  00000-0 -63498-4 0  9997,2 51139  53.2147 146.7700 0001330  98.2409 261.8734 15.08844494101805,6917.867,95.437,540.652,538.812,0.0
51139.0,STARLINK-3172,PAYLOAD,2023-11-12 13:42:39,15.08844774,0.0001334,53.2148,146.4726,99.1938,260.9205,-8.582e-05,-1.654e-05,0.0,0 STARLINK-3172,1 51139U 22005AM  23316.57129028 -.00001654  00000-0 -85820-4 0  9992,2 51139  53.2148 146.4726 0001334  99.1938 260.9205 15.08844774100704,6917.866,95.437,540.654,538.808,0.0
51139.0,STARLINK-3172,PAYLOAD,2023-11-12 20:04:11,15.08847872,0.0001317,53.2151,145.2832,98.7117,261.4024,-3.562e-05,-8.55e-06,0.0,0 STARLINK-3172,1 51139U 22005AM  23316.83624927 -.00000855  00000-0 -35620-4 0  9994,2 51139  53.2151 145.2832 0001317  98.7117 261.4024 15.08847872100749,6917.856,95.437,540.632,538.81,0.0
51139.0,STARLINK-3172,PAYLOAD,2023-11-13 05:36:30,15.08847382,0.000131,53.2148,143.4989,97.4541,262.66,6.7557e-06,-1.8e-06,0.0,0 STARLINK-3172,1 51139U 22005AM  23317.23368865 -.00000180  00000-0  67557-5 0  9990,2 51139  53.2148 143.4989 0001310  97.4541 262.6600 15.08847382100804,6917.858,95.437,540.629,538.817,0.0
51139.0,STARLINK-3172,PAYLOAD,2023-11-13 21:30:22,15.08847441,0.0001317,53.2151,140.5253,100.1887,259.9253,0.0001649,2.338e-05,0.0,0 STARLINK-3172,1 51139U 22005AM  23317.89608798  .00002338  00000-0  16490-3 0  9998,2 51139  53.2151 140.5253 0001317 100.1887 259.9253 15.08847441100902,6917.858,95.437,540.634,538.812,0.0
51139.0,STARLINK-3172,PAYLOAD,2023-11-14 18:10:23,15.0883475,0.0001222,53.2146,136.659,97.536,262.5771,2.0311e-05,3.5e-07,0.0,0 STARLINK-3172,1 51139U 22005AM  23318.75721547  .00000035  00000-0  20311-4 0  9992,2 51139  53.2146 136.6590 0001222  97.5360 262.5771 15.08834750102148,6917.896,95.438,540.607,538.916,0.0
51139.0,STARLINK-3172,PAYLOAD,2023-11-14 21:21:09,15.08838607,0.0001197,53.2139,136.0632,91.7091,268.4038,4.0842e-05,3.62e-06,0.0,0 STARLINK-3172,1 51139U 22005AM  23318.88969353  .00000362  00000-0  40842-4 0  9999,2 51139  53.2139 136.0632 0001197  91.7091 268.4038 15.08838607101054,6917.885,95.438,540.578,538.922,0.0
51139.0,STARLINK-3172,PAYLOAD,2023-11-15 11:39:37,15.08840119,0.0001299,53.2178,133.3864,93.9411,266.1729,3.1251e-05,2.1e-06,0.0,0 STARLINK-3172,1 51139U 22005AM  23319.48585395  .00000210  00000-0  31251-4 0  9992,2 51139  53.2178 133.3864 0001299  93.9411 266.1729 15.08840119101140,6917.88,95.438,540.644,538.846,0.0
51139.0,STARLINK-3172,PAYLOAD,2023-11-15 18:01:09,15.08846498,0.0001289,53.215,132.1974,96.0792,264.0347,6.5237e-05,7.51e-06,0.0,0 STARLINK-3172,1 51139U 22005AM  23319.75081013  .00000751  00000-0  65237-4 0  9991,2 51139  53.2150 132.1974 0001289  96.0792 264.0347 15.08846498102290,6917.861,95.437,540.617,538.834,0.0
51139.0,STARLINK-3172,PAYLOAD,2023-11-16 17:51:57,15.08839989,0.0001134,53.2131,127.7359,98.6454,261.4666,7.6826e-05,9.35e-06,0.0,0 STARLINK-3172,1 51139U 22005AM  23320.74441428  .00000935  00000-0  76826-4 0  9992,2 51139  53.2131 127.7359 0001134  98.6454 261.4666 15.08839989102447,6917.88,95.438,540.53,538.961,0.0
